{"type": "FeatureCollection", "features": [ {"type": "Feature", "properties": {"norad_id": 31633, "name": "FENGYUN 1C DEB", "group": "fengyun-1c-debris", "lat": -19.008101927351973, "lon": 174.56080218012772, "alt_km": 830.8922163689231, "timestamp": "2025-12-09T05:43:21.009486+00:00", "meta": {"OBJECT_NAME": "FENGYUN 1C DEB", "OBJECT_ID": "1999-025CAP", "EPOCH": "2025-11-15T20:43:47.485920", "MEAN_MOTION": 14.06334417, "ECCENTRICITY": 0.00656916, "INCLINATION": 98.7152, "RA_OF_ASC_NODE": 335.0833, "ARG_OF_PERICENTER": 248.7649, "MEAN_ANOMALY": 110.6494, "EPHEMERIS_TYPE": 0, "CLASSIFICATION_TYPE": "U", "NORAD_CAT_ID": 31633, "ELEMENT_SET_NO": 999, "REV_AT_EPOCH": 56706, "BSTAR": 0.0011592605, "MEAN_MOTION_DOT": 1.907e-05, "MEAN_MOTION_DDOT": 0}, "tle": {"line1": "1 31633U 99025CAP 25319.86374405  .00001907  00000+0  11593-2 0  9995", "line2": "2 31633  98.7152 335.0833 0065691 248.7649 110.6494 14.06334417567064"}}, "geometry": {"type": "Point", "coordinates": [174.56080218012772, -19.008101927351973]}}, {"type": "Feature", "properties": {"norad_id": 31634, "name": "FENGYUN 1C DEB", "group": "fengyun-1c-debris", "lat": -59.39622311810038, "lon": -166.52532925076068, "alt_km": 899.9018809395693, "timestamp": "2025-12-09T05:43:21.009497+00:00", "meta": {"OBJECT_NAME": "FENGYUN 1C DEB", "OBJECT_ID": "1999-025CAQ", "EPOCH": "2025-12-02T09:00:27.072576", "MEAN_MOTION": 13.94657889, "ECCENTRICITY": 0.00916924, "INCLINATION": 99.3683, "RA_OF_ASC_NODE": 22.7184, "ARG_OF_PERICENTER": 185.6903, "MEAN_ANOMALY": 174.3223, "EPHEMERIS_TYPE": 0, "CLASSIFICATION_TYPE": "U", "NORAD_CAT_ID": 31634, "ELEMENT_SET_NO": 999, "REV_AT_EPOCH": 56379, "BSTAR": 0.00031553586, "MEAN_MOTION_DOT": 3.91e-06, "MEAN_MOTION_DDOT": 0}, "tle": {"line1": "1 31634U 99025CAQ 25336.37531334  .00000391  00000+0  31554-3 0  9993", "line2": "2 31634  99.3683  22.7184 0091692 185.6903 174.3223 13.94657889563792"}}, "geometry": {"type": "Point", "coordinates": [-166.52532925076068, -59.39622311810038]}}, {"type": "Feature", "properties": {"norad_id": 31639, "name": "FENGYUN 1C DEB", "group": "fengyun-1c-debris", "lat": -53.971659270988035, "lon": 97.197592177913, "alt_km": 930.5379075383153, "timestamp": "2025-12-09T05:43:21.009509+00:00", "meta": {"OBJECT_NAME": "FENGYUN 1C DEB", "OBJECT_ID": "1999-025CAV", "EPOCH": "2025-12-08T15:35:04.983072", "MEAN_MOTION": 13.85161417, "ECCENTRICITY": 0.0161502, "INCLINATION": 98.7426, "RA_OF_ASC_NODE": 288.8628, "ARG_OF_PERICENTER": 156.2698, "MEAN_ANOMALY": 20.8808, "EPHEMERIS_TYPE": 0, "CLASSIFICATION_TYPE": "U", "NORAD_CAT_ID": 31639, "ELEMENT_SET_NO": 999, "REV_AT_EPOCH": 93631, "BSTAR": 0.00021847, "MEAN_MOTION_DOT": 2.35e-06, "MEAN_MOTION_DDOT": 0}, "tle": {"line1": "1 31639U 99025CAV 25342.64936323  .00000235  00000+0  21847-3 0  9993", "line2": "2 31639  98.7426 288.8628 0161502 156.2698  20.8808 13.85161417936319"}}, "geometry": {"type": "Point", "coordinates": [97.197592177913, -53.971659270988035]}}, {"type": "Feature", "properties": {"norad_id": 31642, "name": "FENGYUN 1C DEB", "group": "fengyun-1c-debris", "lat": 13.55065196893385, "lon": -112.43614113738408, "alt_km": 796.325888807406, "timestamp": "2025-12-09T05:43:21.009520+00:00", "meta": {"OBJECT_NAME": "FENGYUN 1C DEB", "OBJECT_ID": "1999-025CAY", "EPOCH": "2025-12-08T12:11:02.230080", "MEAN_MOTION": 14.33387946, "ECCENTRICITY": 0.01190144, "INCLINATION": 98.5047, "RA_OF_ASC_NODE": 64.7791, "ARG_OF_PERICENTER": 269.0808, "MEAN_ANOMALY": 89.6739, "EPHEMERIS_TYPE": 0, "CLASSIFICATION_TYPE": "U", "NORAD_CAT_ID": 31642, "ELEMENT_SET_NO": 999, "REV_AT_EPOCH": 96958, "BSTAR": 0.00067542149, "MEAN_MOTION_DOT": 1.97e-05, "MEAN_MOTION_DDOT": 0}, "tle": {"line1": "1 31642U 99025CAY 25342.50766470  .00001970  00000+0  67542-3 0  9995", "line2": "2 31642  98.5047  64.7791 0119014 269.0808  89.6739 14.33387946969581"}}, "geometry": {"type": "Point", "coordinates": [-112.43614113738408, 13.55065196893385]}}, {"type": "Feature", "properties": {"norad_id": 31644, "name": "FENGYUN 1C DEB", "group": "fengyun-1c-debris", "lat": 33.258459638143364, "lon": -132.86808728562508, "alt_km": 767.9019033340855, "timestamp": "2025-12-09T05:43:21.009530+00:00", "meta": {"OBJECT_NAME": "FENGYUN 1C DEB", "OBJECT_ID": "1999-025CBA", "EPOCH": "2025-12-06T11:16:52.465152", "MEAN_MOTION": 14.67796103, "ECCENTRICITY": 0.01540962, "INCLINATION": 98.6709, "RA_OF_ASC_NODE": 229.9446, "ARG_OF_PERICENTER": 202.8242, "MEAN_ANOMALY": 331.5306, "EPHEMERIS_TYPE": 0, "CLASSIFICATION_TYPE": "U", "NORAD_CAT_ID": 31644, "ELEMENT_SET_NO": 999, "REV_AT_EPOCH": 70952, "BSTAR": 0.0017287223, "MEAN_MOTION_DOT": 0.00011757, "MEAN_MOTION_DDOT": 0}, "tle": {"line1": "1 31644U 99025CBA 25340.47005168  .00011757  00000+0  17287-2 0  9995", "line2": "2 31644  98.6709 229.9446 0154096 202.8242 331.5306 14.67796103709528"}}, "geometry": {"type": "Point", "coordinates": [-132.86808728562508, 33.258459638143364]}}, {"type": "Feature", "properties": {"norad_id": 31646, "name": "FENGYUN 1C DEB", "group": "fengyun-1c-debris", "lat": 15.045397328392294, "lon": -171.30010898460722, "alt_km": 833.9317424832461, "timestamp": "2025-12-09T05:43:21.009540+00:00", "meta": {"OBJECT_NAME": "FENGYUN 1C DEB", "OBJECT_ID": "1999-025CBC", "EPOCH": "2025-12-06T20:54:19.845792", "MEAN_MOTION": 14.14117745, "ECCENTRICITY": 0.00327131, "INCLINATION": 98.6907, "RA_OF_ASC_NODE": 4.0414, "ARG_OF_PERICENTER": 230.7291, "MEAN_ANOMALY": 129.0979, "EPHEMERIS_TYPE": 0, "CLASSIFICATION_TYPE": "U", "NORAD_CAT_ID": 31646, "ELEMENT_SET_NO": 999, "REV_AT_EPOCH": 63108, "BSTAR": 0.00078502967, "MEAN_MOTION_DOT": 1.459e-05, "MEAN_MOTION_DDOT": 0}, "tle": {"line1": "1 31646U 99025CBC 25340.87106303  .00001459  00000+0  78503-3 0  9991", "line2": "2 31646  98.6907   4.0414 0032713 230.7291 129.0979 14.14117745631084"}}, "geometry": {"type": "Point", "coordinates": [-171.30010898460722, 15.045397328392294]}}, {"type": "Feature", "properties": {"norad_id": 31655, "name": "FENGYUN 1C DEB", "group": "fengyun-1c-debris", "lat": -71.60451978720138, "lon": 79.81494110574037, "alt_km": 1085.4607511483528, "timestamp": "2025-12-09T05:43:21.009553+00:00", "meta": {"OBJECT_NAME": "FENGYUN 1C DEB", "OBJECT_ID": "1999-025CBM", "EPOCH": "2025-12-08T02:11:00.557952", "MEAN_MOTION": 13.63822611, "ECCENTRICITY": 0.02885921, "INCLINATION": 99.2861, "RA_OF_ASC_NODE": 288.1866, "ARG_OF_PERICENTER": 150.074, "MEAN_ANOMALY": 229.9547, "EPHEMERIS_TYPE": 0, "CLASSIFICATION_TYPE": "U", "NORAD_CAT_ID": 31655, "ELEMENT_SET_NO": 999, "REV_AT_EPOCH": 59656, "BSTAR": 0.0034168292, "MEAN_MOTION_DOT": 3.556e-05, "MEAN_MOTION_DDOT": 0}, "tle": {"line1": "1 31655U 99025CBM 25342.09097868  .00003556  00000+0  34168-2 0  9990", "line2": "2 31655  99.2861 288.1866 0288592 150.0740 229.9547 13.63822611596569"}}, "geometry": {"type": "Point", "coordinates": [79.81494110574037, -71.60451978720138]}}, {"type": "Feature", "properties": {"norad_id": 31656, "name": "FENGYUN 1C DEB", "group": "fengyun-1c-debris", "lat": 49.085824837808545, "lon": -39.04411876055375, "alt_km": 715.3613768817349, "timestamp": "2025-12-09T05:43:21.009565+00:00", "meta": {"OBJECT_NAME": "FENGYUN 1C DEB", "OBJECT_ID": "1999-025CBN", "EPOCH": "2025-12-07T22:06:00.092160", "MEAN_MOTION": 14.46894273, "ECCENTRICITY": 0.00228069, "INCLINATION": 99.1931, "RA_OF_ASC_NODE": 330.2965, "ARG_OF_PERICENTER": 65.9258, "MEAN_ANOMALY": 324.8359, "EPHEMERIS_TYPE": 0, "CLASSIFICATION_TYPE": "U", "NORAD_CAT_ID": 31656, "ELEMENT_SET_NO": 999, "REV_AT_EPOCH": 96386, "BSTAR": 0.002990493, "MEAN_MOTION_DOT": 0.00010853, "MEAN_MOTION_DDOT": 0}, "tle": {"line1": "1 31656U 99025CBN 25341.92083440  .00010853  00000+0  29905-2 0  9994", "line2": "2 31656  99.1931 330.2965 0022806  65.9258 324.8359 14.46894273963860"}}, "geometry": {"type": "Point", "coordinates": [-39.04411876055375, 49.085824837808545]}}, {"type": "Feature", "properties": {"norad_id": 31657, "name": "FENGYUN 1C DEB", "group": "fengyun-1c-debris", "lat": 9.299830750374586, "lon": 68.52953543939988, "alt_km": 937.2256727829772, "timestamp": "2025-12-09T05:43:21.009576+00:00", "meta": {"OBJECT_NAME": "FENGYUN 1C DEB", "OBJECT_ID": "1999-025CBP", "EPOCH": "2025-12-07T11:40:21.465984", "MEAN_MOTION": 13.96962126, "ECCENTRICITY": 0.0145962, "INCLINATION": 102.2167, "RA_OF_ASC_NODE": 244.176, "ARG_OF_PERICENTER": 66.5844, "MEAN_ANOMALY": 295.058, "EPHEMERIS_TYPE": 0, "CLASSIFICATION_TYPE": "U", "NORAD_CAT_ID": 31657, "ELEMENT_SET_NO": 999, "REV_AT_EPOCH": 62791, "BSTAR": 0.0049448474, "MEAN_MOTION_DOT": 7.481e-05, "MEAN_MOTION_DDOT": 0}, "tle": {"line1": "1 31657U 99025CBP 25341.48635956  .00007481  00000+0  49448-2 0  9998", "line2": "2 31657 102.2167 244.1760 0145962  66.5844 295.0580 13.96962126627916"}}, "geometry": {"type": "Point", "coordinates": [68.52953543939988, 9.299830750374586]}}, {"type": "Feature", "properties": {"norad_id": 31658, "name": "FENGYUN 1C DEB", "group": "fengyun-1c-debris", "lat": 80.63669928316308, "lon": 132.3252610211286, "alt_km": 949.778507469242, "timestamp": "2025-12-09T05:43:21.009586+00:00", "meta": {"OBJECT_NAME": "FENGYUN 1C DEB", "OBJECT_ID": "1999-025CBQ", "EPOCH": "2025-11-30T13:35:01.131648", "MEAN_MOTION": 13.98632883, "ECCENTRICITY": 0.0215722, "INCLINATION": 98.1534, "RA_OF_ASC_NODE": 184.9954, "ARG_OF_PERICENTER": 356.7033, "MEAN_ANOMALY": 3.2699, "EPHEMERIS_TYPE": 0, "CLASSIFICATION_TYPE": "U", "NORAD_CAT_ID": 31658, "ELEMENT_SET_NO": 999, "REV_AT_EPOCH": 69646, "BSTAR": 0.0024889, "MEAN_MOTION_DOT": 4.324e-05, "MEAN_MOTION_DDOT": 0}, "tle": {"line1": "1 31658U 99025CBQ 25334.56598532  .00004324  00000+0  24889-2 0  9993", "line2": "2 31658  98.1534 184.9954 0215722 356.7033   3.2699 13.98632883696462"}}, "geometry": {"type": "Point", "coordinates": [132.3252610211286, 80.63669928316308]}}]}